ID,Address,Suburb,Price,Type,Date,Rooms,Bathroom,Car,Landsize,Age,Lattitude,Longtitude,train_station_id,distance_to_train_stat,travel_min_to_CBD,over_priced?,crime_A_average,crime_B_average,crime_C_average
ID478830112,18 Glenmore St,BOX HILL,1560000.0,h,10/09/2016,4,2.0,3.0,729.0,114.0,-37.8233,145.1267,20042,648.7963169520433,25.775,0,2744.3333333333335,10289.666666666666,780.0
ID283865361,24 Talbot St,HADFIELD,631500.0,h,18/06/2016,3,1.0,3.0,593.0,54.0,-37.7133,144.947,19962,1201.8107082669474,37.0,0,1683.6666666666667,8938.666666666666,509.3333333333333
ID322377855,17/24 Dongola Rd,WEST FOOTSCRAY,815000.0,t,8/04/2017,3,1.0,2.0,203.0,69.0,-37.7928,144.8811,20023,1069.463799548631,19.4,0,298.0,735.0,154.0
ID904859740,5 Fuller St,BULLEEN,1127000.0,h,6/08/2016,3,1.0,2.0,631.0,6.0,-37.7778,145.0901,19935,3467.447941690014,29.823529411764707,0,958.6666666666666,5673.0,628.0
ID899227130,6/16 Cromwell Rd,SOUTH YARRA,470000.0,u,27/11/2016,2,1.0,1.0,0.0,49.0,-37.845,145.0001,19947,185.19308871276087,16.214285714285715,0,1100.6666666666667,3636.3333333333335,457.3333333333333
ID814816092,7/87 Gamon St,YARRAVILLE,770000.0,h,3/12/2016,3,1.0,2.0,323.0,59.0,-37.8108,144.8899,19997,545.4936711741534,10.357142857142858,0,703.6666666666666,1502.0,135.66666666666666
ID702485128,95 Marion St,ALTONA NORTH,1070000.0,h,3/09/2017,3,1.0,3.0,693.0,69.0,-37.83511,144.84905,19994,3153.179476597184,16.310344827586206,0,2494.6666666666665,11307.0,1410.0
ID803740695,2/79 Mimosa Rd,CARNEGIE,855000.0,t,16/04/2016,2,1.0,1.0,158.0,25.0,-37.8886,145.05200000000005,19920,634.5079812497873,23.375,1,3703.6666666666665,18944.0,2039.3333333333333
ID660628170,527 Nicholson St,CARLTON NORTH,1330000.0,h,3/09/2016,3,1.0,1.0,314.0,119.0,-37.7871,144.9766,20019,1456.2586909424751,18.3,0,3703.6666666666665,18944.0,2039.3333333333333
ID827458903,12/14 Eldridge St,FOOTSCRAY,315000.0,u,25/02/2017,2,1.0,1.0,882.0,49.0,-37.7899,144.893,20024,1409.540174333086,17.4,0,2047.6666666666667,9171.0,742.3333333333334
ID765120861,70 Derinya Dr,FRANKSTON SOUTH,1350000.0,h,23/09/2017,4,2.0,2.0,2716.0,59.0,-38.17488,145.1234,19855,3558.1189260004608,68.81818181818181,0,517.3333333333334,2973.0,288.6666666666667
ID378178188,34 Hooker Rd,WERRIBEE,471500.0,h,22/07/2017,3,1.0,2.0,530.0,7.0,-37.89415,144.64143,19921,1824.7359510223903,35.142857142857146,0,98.66666666666667,190.66666666666666,19.0
ID553894437,312/1005 Mt Alexander Rd,ESSENDON,330000.0,u,20/05/2017,1,1.0,1.0,0.0,5.0,-37.7478,144.912,20036,789.5228830968475,27.0,0,330.3333333333333,1855.0,82.0
ID302666407,7/37 Groom St,CLIFTON HILL,885500.0,u,18/06/2016,2,2.0,2.0,0.0,14.0,-37.7937,144.9983,19974,615.9664364996951,15.142857142857142,0,1071.3333333333333,5783.666666666667,419.6666666666667
ID810979628,3/7 Lilian St,NUNAWADING,1235000.0,t,27/05/2017,3,3.0,2.0,338.0,119.0,-37.82704,145.16801,19899,937.8521201097012,31.666666666666668,0,938.3333333333334,6892.666666666667,553.3333333333334
ID820138242,2/50 Palmer St,RICHMOND,534000.0,u,17/06/2017,1,1.0,1.0,1347.0,16.0,-37.81893,145.00631,19906,966.909329140709,11.904761904761905,1,885.0,1901.0,227.66666666666666
ID787077017,21 The Boulevard,IVANHOE,1910000.0,h,18/03/2017,2,1.0,2.0,760.0,19.0,-37.7784,145.0394,19932,391.0948145365486,26.0,0,591.6666666666666,1189.6666666666667,177.33333333333334
ID523786649,55 Tranmere Av,CARNEGIE,1840000.0,h,15/07/2017,3,2.0,1.0,483.0,99.0,-37.89204,145.06086000000005,19919,607.9360482977049,25.375,0,3767.6666666666665,18925.0,2042.3333333333333
ID474624566,102a Jukes Rd,FAWKNER,538000.0,t,22/05/2016,3,2.0,2.0,217.0,59.0,-37.7018,144.9679,19961,804.690519158833,39.0,0,1144.3333333333333,6845.666666666667,375.6666666666667
ID408037716,54 Croydon Rd,SURREY HILLS,2003000.0,h,15/10/2016,4,2.0,1.0,383.0,139.0,-37.8234,145.0923,19894,336.3734255462946,25.76923076923077,0,2403.6666666666665,5212.333333333333,586.6666666666666
ID822152876,22/382 Toorak Rd,SOUTH YARRA,601000.0,u,10/12/2016,2,1.0,1.0,0.0,49.0,-37.8406,145.0033,19947,455.7650125918672,16.214285714285715,0,1100.6666666666667,3636.3333333333335,457.3333333333333
ID161138806,68 Littlewood St,HAMPTON,2905000.0,h,27/05/2017,4,2.0,2.0,630.0,6.0,-37.93571,145.00964,19949,760.3249547755719,31.5,1,1841.6666666666667,9184.666666666666,533.3333333333334
ID569843817,4 Graeme Ct,BULLEEN,1244000.0,h,23/04/2016,4,2.0,2.0,530.0,44.0,-37.7735,145.088,19935,3020.1581522922856,29.823529411764707,0,958.6666666666666,5673.0,628.0
ID485042642,22 Park Sq,PORT MELBOURNE,1630000.0,h,4/03/2017,3,2.0,2.0,135.0,22.0,-37.8395,144.9343,22180,2832.9050236369917,0.0,0,705.3333333333334,5479.666666666667,335.0
ID353216238,9 Bawden Ct,PASCOE VALE,770000.0,h,13/05/2017,4,1.0,2.0,596.0,59.0,-37.7195,144.9456,19963,1392.796282332866,36.0,0,705.3333333333334,5479.666666666667,335.0
ID749227412,127 Stanhope St,WEST FOOTSCRAY,1060000.0,h,16/09/2017,4,3.0,2.0,512.0,99.0,-37.79487,144.86353,20022,490.3768504010857,21.4,0,298.0,735.0,154.0
ID971985373,38 Belmore Rd,BALWYN,1475000.0,h,1/07/2017,4,3.0,5.0,380.0,59.0,-37.80156,145.06715,19892,2710.3557990738254,21.785714285714285,0,959.0,4476.666666666667,324.0
ID489979110,17 Staniland Gr,ELSTERNWICK,2600000.0,h,13/08/2016,4,2.0,2.0,527.0,139.0,-37.883,145.0043,19954,356.9695372511836,21.5,0,1566.6666666666667,8895.333333333334,491.0
ID492739154,38 Templeton St,WANTIRNA,920000.0,h,23/09/2017,4,2.0,2.0,601.0,39.0,-37.86231,145.22633000000005,19871,4108.635893630617,41.083333333333336,0,256.0,511.3333333333333,54.666666666666664
ID376456671,32 Millers Rd,BROOKLYN,663000.0,t,27/05/2017,3,2.0,2.0,244.0,9.0,-37.82017000000001,144.84904,20022,2630.224128915671,21.4,0,444.6666666666667,981.3333333333334,239.66666666666666
ID493191163,17 Wicklow St,PASCOE VALE,881000.0,h,15/07/2017,3,1.0,1.0,480.0,12.0,-37.71893,144.94246,19962,1663.1696106945037,37.0,0,705.3333333333334,5479.666666666667,335.0
ID169141890,5 Hamilton St,NIDDRIE,991000.0,h,11/02/2017,3,1.0,1.0,716.0,69.0,-37.7368,144.8856,20036,3319.5739919557936,27.0,0,84.33333333333333,293.3333333333333,23.0
ID392780899,43 Robert St,BULLEEN,1310000.0,h,27/05/2017,1,1.0,1.0,604.0,20.0,-37.75981,145.08598999999995,19935,2247.722703770202,29.823529411764707,0,941.3333333333334,5813.0,575.6666666666666
ID339643855,2/111 Marlborough St,BENTLEIGH EAST,800000.0,u,18/06/2016,3,2.0,2.0,252.0,25.0,-37.9085,145.0683,19918,1723.5362610018053,27.35483870967742,0,925.6666666666666,4701.333333333333,308.6666666666667
ID962551048,48/352 Canterbury Rd,ST KILDA,430000.0,u,28/05/2016,2,1.0,1.0,0.0,11.0,-37.859,144.9767,19957,1387.1432358693955,15.5,0,1363.6666666666667,6287.666666666667,564.3333333333334
ID758031781,1 Dorothy St,PASCOE VALE,802000.0,h,27/05/2017,3,2.0,1.0,450.0,59.0,-37.71872000000001,144.94871,19963,1136.8159367798523,36.0,0,705.3333333333334,5479.666666666667,335.0
ID594062312,3 Arthur St,SURREY HILLS,1910000.0,h,23/09/2017,4,3.0,2.0,416.0,5.0,-37.82671,145.11068,19896,928.6486950169738,28.785714285714285,0,2532.3333333333335,5455.0,713.0
ID833035259,30 Shepherd St,BRAYBROOK,730000.0,h,29/04/2017,3,1.0,3.0,586.0,17.0,-37.783,144.855,20022,1939.318683382419,21.4,0,2897.3333333333335,11243.0,942.0
ID527367185,1/6 Burvale Ct,TULLAMARINE,555000.0,t,27/05/2017,3,2.0,2.0,286.0,11.0,-37.69728,144.87455,20031,3645.658539913307,38.0,0,256.0,511.3333333333333,54.666666666666664
ID829532159,67 Wilson St,SOUTH YARRA,1460000.0,h,9/09/2017,2,1.0,2.0,175.0,119.0,-37.84401,144.99839,19947,336.103112120394,16.214285714285715,0,1245.0,3886.0,447.6666666666667
ID657995193,62 Dowding Cl,FAWKNER,615000.0,h,16/04/2016,4,2.0,3.0,476.0,42.0,-37.697,144.9655,19961,712.874431517731,39.0,0,1144.3333333333333,6845.666666666667,375.6666666666667
ID379062130,241 Buckley St,ABERFELDIE,1380000.0,h,12/08/2017,4,2.0,2.0,766.0,139.0,-37.75595,144.90551000000005,20037,940.633699489424,24.0,0,817.6666666666666,1779.6666666666667,181.0
ID774535391,1/30 Burns St,MAIDSTONE,810000.0,t,24/06/2017,3,2.0,2.0,209.0,59.0,-37.78707,144.87608,20022,1781.464535914648,21.4,0,717.3333333333334,1763.0,318.6666666666667
ID451684381,36 The Ridge,CANTERBURY,1775000.0,t,13/05/2017,3,2.0,2.0,410.0,139.0,-37.8178,145.0649,19892,946.332259519949,21.785714285714285,0,3767.6666666666665,18925.0,2042.3333333333333
ID433247029,649 Queensberry St,OAKLEIGH SOUTH,940000.0,h,29/04/2017,2,1.0,0.0,89.0,129.0,-37.9394,145.089,19915,3217.1234792144696,34.25806451612903,0,142.0,344.6666666666667,39.333333333333336
ID893735588,44 McLean Av,BENTLEIGH,1300000.0,h,26/08/2017,3,2.0,2.0,566.0,59.0,-37.91469,145.02789,19939,855.5898796898898,35.15384615384615,0,959.0,4476.666666666667,324.0
ID417169587,1 Durkin St,NEWPORT,740000.0,h,16/04/2016,2,2.0,1.0,213.0,13.0,-37.8441,144.8805,19994,312.95101449695863,16.310344827586206,0,71.0,261.0,20.0
ID560899988,17/246 Wattletree Rd,MALVERN,1350000.0,u,4/03/2017,2,2.0,2.0,0.0,49.0,-37.8638,145.0379,19944,804.0986790739274,20.8,0,717.3333333333334,1763.0,318.6666666666667
ID336480831,2/32 Gardenia Rd,GARDENVALE,393000.0,u,14/05/2016,2,1.0,1.0,0.0,49.0,-37.8971,145.0093,19953,453.01635657977135,23.5,0,86.33333333333333,233.33333333333334,28.0
ID590042228,42 Shiers St,ALPHINGTON,1950000.0,h,30/07/2016,4,2.0,3.0,589.0,99.0,-37.7719,145.0309,19931,723.5265418119624,24.0,0,1202.0,5034.333333333333,333.0
ID151328266,4 Bendigo St,HAMPTON,3200000.0,h,10/09/2016,4,3.0,3.0,760.0,99.0,-37.9326,144.9997,19949,618.3884154156767,31.5,0,1683.6666666666667,8938.666666666666,509.3333333333333
ID414584712,1/7 Boston Rd,BALWYN,1800000.0,h,16/07/2016,3,2.0,2.0,380.0,39.0,-37.8161,145.0772,19893,998.2397331354595,23.76923076923077,0,925.6666666666666,4701.333333333333,308.6666666666667
ID340619145,2/25 El Nido Gr,CARNEGIE,707000.0,t,13/08/2016,2,1.0,1.0,144.0,19.0,-37.892,145.0482,19942,583.2365283715102,29.23076923076923,0,3703.6666666666665,18944.0,2039.3333333333333
ID953991719,14 Delmont St,ALBION,730000.0,h,4/03/2017,3,2.0,3.0,628.0,59.0,-37.7801,144.8121,20020,932.4307606385586,21.333333333333332,0,298.0,735.0,154.0
